{"type": "FeatureCollection", "features": [{"type": "Feature", "properties": {"norad_id": 24946, "name": "IRIDIUM 33", "group": "iridium-33-debris", "lat": 61.453471747378806, "lon": -118.23864589840424, "alt_km": 768.5416667142408, "timestamp": "2025-12-12T05:47:29.155752+00:00", "meta": {"OBJECT_NAME": "IRIDIUM 33", "OBJECT_ID": "1997-051C", "EPOCH": "2025-12-11T12:30:24.203808", "MEAN_MOTION": 14.35036393, "ECCENTRICITY": 0.00068891, "INCLINATION": 86.387, "RA_OF_ASC_NODE": 68.7332, "ARG_OF_PERICENTER": 204.7414, "MEAN_ANOMALY": 155.3453, "EPHEMERIS_TYPE": 0, "CLASSIFICATION_TYPE": "U", "NORAD_CAT_ID": 24946, "ELEMENT_SET_NO": 999, "REV_AT_EPOCH": 47817, "BSTAR": 0.00020258749, "MEAN_MOTION_DOT": 5.97e-06, "MEAN_MOTION_DDOT": 0}, "tle": {"line1": "1 24946U 97051C   25345.52111347  .00000597  00000+0  20259-3 0  9991", "line2": "2 24946  86.3870  68.7332 0006889 204.7414 155.3453 14.35036393478171"}}, "geometry": {"type": "Point", "coordinates": [-118.23864589840424, 61.453471747378806]}}, {"type": "Feature", "properties": {"norad_id": 33773, "name": "IRIDIUM 33 DEB", "group": "iridium-33-debris", "lat": 60.23668081120513, "lon": 67.11905967647587, "alt_km": 741.5500153467965, "timestamp": "2025-12-12T05:47:29.155797+00:00", "meta": {"OBJECT_NAME": "IRIDIUM 33 DEB", "OBJECT_ID": "1997-051L", "EPOCH": "2025-12-11T11:12:30.293856", "MEAN_MOTION": 14.43253357, "ECCENTRICITY": 0.00123509, "INCLINATION": 86.4014, "RA_OF_ASC_NODE": 61.129, "ARG_OF_PERICENTER": 150.1569, "MEAN_ANOMALY": 210.0339, "EPHEMERIS_TYPE": 0, "CLASSIFICATION_TYPE": "U", "NORAD_CAT_ID": 33773, "ELEMENT_SET_NO": 999, "REV_AT_EPOCH": 88329, "BSTAR": 0.00051200046, "MEAN_MOTION_DOT": 1.743e-05, "MEAN_MOTION_DDOT": 0}, "tle": {"line1": "1 33773U 97051L   25345.46701729  .00001743  00000+0  51200-3 0  9995", "line2": "2 33773  86.4014  61.1290 0012350 150.1569 210.0339 14.43253357883290"}}, "geometry": {"type": "Point", "coordinates": [67.11905967647587, 60.23668081120513]}}, {"type": "Feature", "properties": {"norad_id": 33775, "name": "IRIDIUM 33 DEB", "group": "iridium-33-debris", "lat": 32.51616885606123, "lon": -132.55673936840816, "alt_km": 741.7873756991039, "timestamp": "2025-12-12T05:47:29.155813+00:00", "meta": {"OBJECT_NAME": "IRIDIUM 33 DEB", "OBJECT_ID": "1997-051N", "EPOCH": "2025-12-11T23:00:29.254752", "MEAN_MOTION": 14.41466132, "ECCENTRICITY": 0.00142077, "INCLINATION": 86.3638, "RA_OF_ASC_NODE": 49.8871, "ARG_OF_PERICENTER": 156.9906, "MEAN_ANOMALY": 324.5952, "EPHEMERIS_TYPE": 0, "CLASSIFICATION_TYPE": "U", "NORAD_CAT_ID": 33775, "ELEMENT_SET_NO": 999, "REV_AT_EPOCH": 88129, "BSTAR": 0.0005046638, "MEAN_MOTION_DOT": 1.658e-05, "MEAN_MOTION_DDOT": 0}, "tle": {"line1": "1 33775U 97051N   25345.95867193  .00001658  00000+0  50466-3 0  9997", "line2": "2 33775  86.3638  49.8871 0014207 156.9906 324.5952 14.41466132881298"}}, "geometry": {"type": "Point", "coordinates": [-132.55673936840816, 32.51616885606123]}}, {"type": "Feature", "properties": {"norad_id": 33776, "name": "IRIDIUM 33 DEB", "group": "iridium-33-debris", "lat": 22.639010980255755, "lon": 82.48816171222059, "alt_km": 774.0523199915542, "timestamp": "2025-12-12T05:47:29.155827+00:00", "meta": {"OBJECT_NAME": "IRIDIUM 33 DEB", "OBJECT_ID": "1997-051P", "EPOCH": "2025-12-11T20:14:11.965056", "MEAN_MOTION": 14.38232823, "ECCENTRICITY": 0.00142384, "INCLINATION": 86.4036, "RA_OF_ASC_NODE": 81.1523, "ARG_OF_PERICENTER": 193.3301, "MEAN_ANOMALY": 289.5009, "EPHEMERIS_TYPE": 0, "CLASSIFICATION_TYPE": "U", "NORAD_CAT_ID": 33776, "ELEMENT_SET_NO": 999, "REV_AT_EPOCH": 88069, "BSTAR": 0.00047397129, "MEAN_MOTION_DOT": 1.46e-05, "MEAN_MOTION_DDOT": 0}, "tle": {"line1": "1 33776U 97051P   25345.84319404  .00001460  00000+0  47397-3 0  9993", "line2": "2 33776  86.4036  81.1523 0014238 193.3301 289.5009 14.38232823880693"}}, "geometry": {"type": "Point", "coordinates": [82.48816171222059, 22.639010980255755]}}, {"type": "Feature", "properties": {"norad_id": 33777, "name": "IRIDIUM 33 DEB", "group": "iridium-33-debris", "lat": 40.48482951904015, "lon": -147.6789432044118, "alt_km": 705.6901708473224, "timestamp": "2025-12-12T05:47:29.155840+00:00", "meta": {"OBJECT_NAME": "IRIDIUM 33 DEB", "OBJECT_ID": "1997-051Q", "EPOCH": "2025-12-11T11:00:16.115904", "MEAN_MOTION": 14.5560175, "ECCENTRICITY": 0.00050951, "INCLINATION": 86.3785, "RA_OF_ASC_NODE": 35.7605, "ARG_OF_PERICENTER": 254.7842, "MEAN_ANOMALY": 105.2803, "EPHEMERIS_TYPE": 0, "CLASSIFICATION_TYPE": "U", "NORAD_CAT_ID": 33777, "ELEMENT_SET_NO": 999, "REV_AT_EPOCH": 88515, "BSTAR": 0.0016387013, "MEAN_MOTION_DOT": 7.169e-05, "MEAN_MOTION_DDOT": 0}, "tle": {"line1": "1 33777U 97051Q   25345.45851986  .00007169  00000+0  16387-2 0  9993", "line2": "2 33777  86.3785  35.7605 0005095 254.7842 105.2803 14.55601750885153"}}, "geometry": {"type": "Point", "coordinates": [-147.6789432044118, 40.48482951904015]}}, {"type": "Feature", "properties": {"norad_id": 33850, "name": "IRIDIUM 33 DEB", "group": "iridium-33-debris", "lat": 52.8321393864272, "lon": -154.4462917251335, "alt_km": 739.520252367498, "timestamp": "2025-12-12T05:47:29.155852+00:00", "meta": {"OBJECT_NAME": "IRIDIUM 33 DEB", "OBJECT_ID": "1997-051T", "EPOCH": "2025-12-11T21:26:48.153696", "MEAN_MOTION": 14.42143903, "ECCENTRICITY": 0.00121318, "INCLINATION": 86.3419, "RA_OF_ASC_NODE": 30.5436, "ARG_OF_PERICENTER": 163.6453, "MEAN_ANOMALY": 319.3865, "EPHEMERIS_TYPE": 0, "CLASSIFICATION_TYPE": "U", "NORAD_CAT_ID": 33850, "ELEMENT_SET_NO": 999, "REV_AT_EPOCH": 88140, "BSTAR": 0.00046864386, "MEAN_MOTION_DOT": 1.562e-05, "MEAN_MOTION_DDOT": 0}, "tle": {"line1": "1 33850U 97051T   25345.89361289  .00001562  00000+0  46864-3 0  9990", "line2": "2 33850  86.3419  30.5436 0012131 163.6453 319.3865 14.42143903881406"}}, "geometry": {"type": "Point", "coordinates": [-154.4462917251335, 52.8321393864272]}}, {"type": "Feature", "properties": {"norad_id": 33853, "name": "IRIDIUM 33 DEB", "group": "iridium-33-debris", "lat": -46.77667939548781, "lon": 174.2993313238253, "alt_km": 755.6962157188564, "timestamp": "2025-12-12T05:47:29.155866+00:00", "meta": {"OBJECT_NAME": "IRIDIUM 33 DEB", "OBJECT_ID": "1997-051W", "EPOCH": "2025-12-11T23:41:06.382752", "MEAN_MOTION": 13.99054711, "ECCENTRICITY": 0.02070301, "INCLINATION": 86.0003, "RA_OF_ASC_NODE": 350.1415, "ARG_OF_PERICENTER": 238.1458, "MEAN_ANOMALY": 148.4368, "EPHEMERIS_TYPE": 0, "CLASSIFICATION_TYPE": "U", "NORAD_CAT_ID": 33853, "ELEMENT_SET_NO": 999, "REV_AT_EPOCH": 85335, "BSTAR": 0.0027295941, "MEAN_MOTION_DOT": 4.759e-05, "MEAN_MOTION_DDOT": 0}, "tle": {"line1": "1 33853U 97051W   25345.98687943  .00004759  00000+0  27296-2 0  9999", "line2": "2 33853  86.0003 350.1415 0207030 238.1458 148.4368 13.99054711853351"}}, "geometry": {"type": "Point", "coordinates": [174.2993313238253, -46.77667939548781]}}, {"type": "Feature", "properties": {"norad_id": 33860, "name": "IRIDIUM 33 DEB", "group": "iridium-33-debris", "lat": 15.56310935979292, "lon": 28.46810272471344, "alt_km": 665.1849901753794, "timestamp": "2025-12-12T05:47:29.155879+00:00", "meta": {"OBJECT_NAME": "IRIDIUM 33 DEB", "OBJECT_ID": "1997-051AD", "EPOCH": "2025-12-11T03:48:48.164256", "MEAN_MOTION": 14.67334001, "ECCENTRICITY": 0.00076792, "INCLINATION": 86.3835, "RA_OF_ASC_NODE": 27.9377, "ARG_OF_PERICENTER": 3.2947, "MEAN_ANOMALY": 58.2985, "EPHEMERIS_TYPE": 0, "CLASSIFICATION_TYPE": "U", "NORAD_CAT_ID": 33860, "ELEMENT_SET_NO": 999, "REV_AT_EPOCH": 88699, "BSTAR": 0.0018344014, "MEAN_MOTION_DOT": 0.00010386, "MEAN_MOTION_DDOT": 0}, "tle": {"line1": "1 33860U 97051AD  25345.15889079  .00010386  00000+0  18344-2 0  9997", "line2": "2 33860  86.3835  27.9377 0007679   3.2947  58.2985 14.67334001886990"}}, "geometry": {"type": "Point", "coordinates": [28.46810272471344, 15.56310935979292]}}, {"type": "Feature", "properties": {"norad_id": 33862, "name": "IRIDIUM 33 DEB", "group": "iridium-33-debris", "lat": 46.754853835868744, "lon": 41.57814993655039, "alt_km": 624.2556502771749, "timestamp": "2025-12-12T05:47:29.155890+00:00", "meta": {"OBJECT_NAME": "IRIDIUM 33 DEB", "OBJECT_ID": "1997-051AF", "EPOCH": "2025-12-11T15:37:39.995904", "MEAN_MOTION": 14.6944815, "ECCENTRICITY": 0.00535473, "INCLINATION": 86.409, "RA_OF_ASC_NODE": 38.0099, "ARG_OF_PERICENTER": 72.8442, "MEAN_ANOMALY": 94.4625, "EPHEMERIS_TYPE": 0, "CLASSIFICATION_TYPE": "U", "NORAD_CAT_ID": 33862, "ELEMENT_SET_NO": 999, "REV_AT_EPOCH": 88807, "BSTAR": 0.0022606602, "MEAN_MOTION_DOT": 0.00013719, "MEAN_MOTION_DDOT": 0}, "tle": {"line1": "1 33862U 97051AF  25345.65115736  .00013719  00000+0  22607-2 0  9996", "line2": "2 33862  86.4090  38.0099 0053547  72.8442  94.4625 14.69448150888074"}}, "geometry": {"type": "Point", "coordinates": [41.57814993655039, 46.754853835868744]}}, {"type": "Feature", "properties": {"norad_id": 33866, "name": "IRIDIUM 33 DEB", "group": "iridium-33-debris", "lat": -12.39207431048918, "lon": -85.93899411437926, "alt_km": 740.1740926409084, "timestamp": "2025-12-12T05:47:29.155902+00:00", "meta": {"OBJECT_NAME": "IRIDIUM 33 DEB", "OBJECT_ID": "1997-051AK", "EPOCH": "2025-12-11T17:52:24.585600", "MEAN_MOTION": 14.2527019, "ECCENTRICITY": 0.01144065, "INCLINATION": 86.2997, "RA_OF_ASC_NODE": 93.4564, "ARG_OF_PERICENTER": 164.5566, "MEAN_ANOMALY": 0.7561, "EPHEMERIS_TYPE": 0, "CLASSIFICATION_TYPE": "U", "NORAD_CAT_ID": 33866, "ELEMENT_SET_NO": 999, "REV_AT_EPOCH": 86796, "BSTAR": 0.0011244698, "MEAN_MOTION_DOT": 2.851e-05, "MEAN_MOTION_DDOT": 0}, "tle": {"line1": "1 33866U 97051AK  25345.74472900  .00002851  00000+0  11245-2 0  9990", "line2": "2 33866  86.2997  93.4564 0114406 164.5566   0.7561 14.25270190867965"}}, "geometry": {"type": "Point", "coordinates": [-85.93899411437926, -12.39207431048918]}}]}